{
  "type": "FeatureCollection",
  "features": [
    {
      "type": "Feature",
      "geometry": {
        "type": "Point",
        "coordinates": [
          -87.9348,
          43.0768
        ]
      },
      "properties": {
        "name": "Joycelyn T.",
        "role": "Resident",
        "neighborhood": "The 53206 Neighborhood",
        "heroImage": "img/joycelyn-t.png",
        "id": "wct-8.md"
      }
    },
    {
      "type": "Feature",
      "geometry": {
        "type": "Point",
        "coordinates": [
          -87.9892,
          43.1232
        ]
      },
      "properties": {
        "name": "Garlandra G.",
        "role": "Resident",
        "neighborhood": "The 53218 Neighborhood",
        "heroImage": "img/garlandra-g.png",
        "id": "wct-7.md"
      }
    },
    {
      "type": "Feature",
      "geometry": {
        "type": "Point",
        "coordinates": [
          -87.9661,
          43.0711
        ]
      },
      "properties": {
        "name": "JoAnn J.",
        "role": "Resident",
        "neighborhood": "The 53210 Neighborhood",
        "heroImage": "img/joann-j.png",
        "id": "wct-6.md"
      }
    },
    {
      "type": "Feature",
      "geometry": {
        "type": "Point",
        "coordinates": [
          -87.9302,
          43.0416
        ]
      },
      "properties": {
        "name": "Cosmic S.",
        "role": "Resident",
        "neighborhood": "The 53233 Neighborhood",
        "heroImage": "img/cosmic-s.jpg",
        "id": "wct-5.md"
      }
    },
    {
      "type": "Feature",
      "geometry": {
        "type": "Point",
        "coordinates": [
          -87.9015,
          43.0454
        ]
      },
      "properties": {
        "name": "Amaya V.",
        "role": "Resident",
        "neighborhood": "The 53202 Neighborhood",
        "heroImage": "img/amaya-v.png",
        "id": "wct-4.md"
      }
    },
    {
      "type": "Feature",
      "geometry": {
        "type": "Point",
        "coordinates": [
          -87.9691,
          43.0691
        ]
      },
      "properties": {
        "name": "Debarla W.",
        "role": "Resident",
        "neighborhood": "The 53210 Neighborhood",
        "heroImage": "img/debarla-w.png",
        "id": "wct-3.md"
      }
    },
    {
      "type": "Feature",
      "geometry": {
        "type": "Point",
        "coordinates": [
          -87.9332,
          43.0396
        ]
      },
      "properties": {
        "name": "Aquanetta M.",
        "role": "Resident",
        "neighborhood": "The 53233 Neighborhood",
        "heroImage": "img/aquanetta-m.jpg",
        "id": "wct-2.md"
      }
    },
    {
      "type": "Feature",
      "geometry": {
        "type": "Point",
        "coordinates": [
          -87.9298,
          43.0561
        ]
      },
      "properties": {
        "name": "Maria B.",
        "role": "Home Owner",
        "neighborhood": "Lindsay Heights",
        "heroImage": "img/maria-b.jpg",
        "id": "wct-1.md"
      }
    }
  ]
}